NORAD_CAT_ID,OBJECT_NAME,OBJECT_TYPE,EPOCH,MEAN_MOTION,ECCENTRICITY,INCLINATION,RA_OF_ASC_NODE,ARG_OF_PERICENTER,MEAN_ANOMALY,BSTAR,MEAN_MOTION_DOT,MEAN_MOTION_DDOT,TLE_LINE0,TLE_LINE1,TLE_LINE2,SEMIMAJOR_AXIS,PERIOD,APOGEE,PERIGEE,DECAYED
54780.0,STARLINK-5449,PAYLOAD,2024-04-22 11:03:59,15.08843904,0.0001342,53.2179,229.6239,101.1152,258.9991,0.00048537,7.446e-05,0.0,0 STARLINK-5449,1 54780U 22175Y   24113.46110654  .00007446  00000-0  48537-3 0  9990,2 54780  53.2179 229.6239 0001342 101.1152 258.9991 15.08843904 74373,6917.868,95.437,540.662,538.805,0.0
54780.0,STARLINK-5449,PAYLOAD,2024-04-22 17:25:31,15.08846702,0.0001754,53.216,228.4296,127.708,232.4072,0.00043991,6.721e-05,0.0,0 STARLINK-5449,1 54780U 22175Y   24113.72606333  .00006721  00000-0  43991-3 0  9997,2 54780  53.2160 228.4296 0001754 127.7080 232.4072 15.08846702 76574,6917.86,95.437,540.938,538.512,0.0
54780.0,STARLINK-5449,PAYLOAD,2024-04-23 12:30:09,15.08842957,0.0001793,53.2167,224.8584,131.5074,228.6072,-5.2758e-05,-1.128e-05,0.0,0 STARLINK-5449,1 54780U 22175Y   24114.52094100 -.00001128  00000-0 -52758-4 0  9999,2 54780  53.2167 224.8584 0001793 131.5074 228.6072 15.08842957 74539,6917.871,95.437,540.977,538.496,0.0
54780.0,STARLINK-5449,PAYLOAD,2024-04-23 14:05:32,15.0884016,0.0001312,53.2164,224.5612,117.8174,242.2951,-7.099e-05,-1.418e-05,0.0,0 STARLINK-5449,1 54780U 22175Y   24114.58718306 -.00001418  00000-0 -70990-4 0  9996,2 54780  53.2164 224.5612 0001312 117.8174 242.2951 15.08840160 76703,6917.88,95.438,540.653,538.837,0.0
54780.0,STARLINK-5449,PAYLOAD,2024-04-24 12:20:57,15.0883689,0.0001129,53.2164,220.4038,99.0495,261.0625,0.00010756,1.424e-05,0.0,0 STARLINK-5449,1 54780U 22175Y   24115.51454865  .00001424  00000-0  10756-3 0  9995,2 54780  53.2164 220.4038 0001129  99.0495 261.0625 15.08836890 74680,6917.89,95.438,540.536,538.974,0.0
54780.0,STARLINK-5449,PAYLOAD,2024-04-25 12:11:44,15.08827492,9.81e-05,53.2161,215.9418,90.3559,269.7545,-5.7509e-05,-1.203e-05,0.0,0 STARLINK-5449,1 54780U 22175Y   24116.50815381 -.00001203  00000-0 -57509-4 0  9994,2 54780  53.2161 215.9418 0000981  90.3559 269.7545 15.08827492 74839,6917.919,95.438,540.462,539.105,0.0
54780.0,STARLINK-5449,PAYLOAD,2024-04-26 12:02:31,15.08841843,9.86e-05,53.2149,211.4806,75.1154,284.9947,0.00015314,2.15e-05,0.0,0 STARLINK-5449,1 54780U 22175Y   24117.50175104  .00002150  00000-0  15314-3 0  9994,2 54780  53.2149 211.4806 0000986  75.1154 284.9947 15.08841843 74981,6917.875,95.437,540.422,539.058,0.0
54780.0,STARLINK-5449,PAYLOAD,2024-04-26 13:37:54,15.08847202,0.0001077,53.2154,211.1879,94.0554,266.0561,0.00013943,1.932e-05,0.0,0 STARLINK-5449,1 54780U 22175Y   24117.56798753  .00001932  00000-0  13943-3 0  9994,2 54780  53.2154 211.1879 0001077  94.0554 266.0561 15.08847202 77150,6917.858,95.437,540.468,538.978,0.0
54780.0,STARLINK-5449,PAYLOAD,2024-04-27 13:28:40,15.08853609,0.0001499,53.2155,206.7294,93.1471,266.9692,0.00026466,3.928e-05,0.0,0 STARLINK-5449,1 54780U 22175Y   24118.56158305  .00003928  00000-0  26466-3 0  9999,2 54780  53.2155 206.7294 0001499  93.1471 266.9692 15.08853609 77307,6917.839,95.437,540.741,538.667,0.0
54780.0,STARLINK-5449,PAYLOAD,2024-04-28 05:22:31,15.08830105,0.0001706,53.2141,203.7559,78.7655,281.3528,-0.00058515,-9.586e-05,0.0,0 STARLINK-5449,1 54780U 22175Y   24119.22398030 -.00009586  00000-0 -58515-3 0  9992,2 54780  53.2141 203.7559 0001706  78.7655 281.3528 15.08830105 75243,6917.911,95.438,540.956,538.595,0.0
54780.0,STARLINK-5449,PAYLOAD,2024-04-28 13:19:27,15.08833596,0.0001265,53.2146,202.267,71.5836,288.5294,0.0011578,0.00018183,0.0,0 STARLINK-5449,1 54780U 22175Y   24119.55518478  .00018183  00000-0  11578-2 0  9996,2 54780  53.2146 202.2670 0001265  71.5836 288.5294 15.08833596 77459,6917.9,95.438,540.64,538.89,0.0
54780.0,STARLINK-5449,PAYLOAD,2024-04-29 11:34:52,15.08836147,0.0001305,53.2136,198.1031,77.0152,283.0986,0.0007842,0.00012213,0.0,0 STARLINK-5449,1 54780U 22175Y   24120.48254765  .00012213  00000-0  78420-3 0  9994,2 54780  53.2136 198.1031 0001305  77.0152 283.0986 15.08836147 75438,6917.892,95.438,540.66,538.854,0.0
54780.0,STARLINK-5449,PAYLOAD,2024-04-30 11:25:39,15.08839532,0.0001618,53.2162,193.6429,85.5824,274.5353,0.00021584,3.149e-05,0.0,0 STARLINK-5449,1 54780U 22175Y   24121.47614989  .00003149  00000-0  21584-3 0  9999,2 54780  53.2162 193.6429 0001618  85.5824 274.5353 15.08839532 75585,6917.882,95.438,540.866,538.628,0.0
54780.0,STARLINK-5449,PAYLOAD,2024-05-01 11:16:26,15.08849064,0.0001595,53.217,189.1829,85.2807,274.8367,0.0003127,4.693e-05,0.0,0 STARLINK-5449,1 54780U 22175Y   24122.46974731  .00004693  00000-0  31270-3 0  9991,2 54780  53.2170 189.1829 0001595  85.2807 274.8367 15.08849064 77895,6917.853,95.437,540.821,538.614,0.0
54780.0,STARLINK-5449,PAYLOAD,2024-05-01 20:48:44,15.08851281,0.0001579,53.2168,187.3988,85.6059,274.5113,0.00026796,3.98e-05,0.0,0 STARLINK-5449,1 54780U 22175Y   24122.86718427  .00003980  00000-0  26796-3 0  9998,2 54780  53.2168 187.3988 0001579  85.6059 274.5113 15.08851281 75790,6917.846,95.437,540.803,538.619,0.0
54780.0,STARLINK-5449,PAYLOAD,2024-05-02 04:45:40,15.08844444,0.000203,53.2155,185.9118,89.4539,270.6686,0.00014895,2.083e-05,0.0,0 STARLINK-5449,1 54780U 22175Y   24123.19838660  .00002083  00000-0  14895-3 0  9997,2 54780  53.2155 185.9118 0002030  89.4539 270.6686 15.08844444 75844,6917.867,95.437,541.136,538.327,0.0
54780.0,STARLINK-5449,PAYLOAD,2024-05-02 11:07:13,15.08843376,0.0001466,53.2158,184.7232,89.9278,270.1882,0.00015164,2.126e-05,0.0,0 STARLINK-5449,1 54780U 22175Y   24123.46334689  .00002126  00000-0  15164-3 0  9997,2 54780  53.2158 184.7232 0001466  89.9278 270.1882 15.08843376 78049,6917.87,95.437,540.749,538.721,0.0
54780.0,STARLINK-5449,PAYLOAD,2024-05-03 04:36:27,15.08835771,0.0001711,53.2149,181.4507,86.7964,273.3224,-1.668e-05,-5.54e-06,0.0,0 STARLINK-5449,1 54780U 22175Y   24124.19198729 -.00000554  00000-0 -16680-4 0  9991,2 54780  53.2149 181.4507 0001711  86.7964 273.3224 15.08835771 75994,6917.893,95.438,540.942,538.575,0.0
54780.0,STARLINK-5449,PAYLOAD,2024-05-03 12:33:24,15.08812024,0.00016,53.2146,179.9636,81.2247,278.8926,-0.00043886,-7.26e-05,0.0,0 STARLINK-5449,1 54780U 22175Y   24124.52319891 -.00007260  00000-0 -43886-3 0  9991,2 54780  53.2146 179.9636 0001600  81.2247 278.8926 15.08812024 76049,6917.966,95.439,540.938,538.724,0.0
54780.0,STARLINK-5449,PAYLOAD,2024-05-03 14:08:47,15.08811753,0.0001602,53.2147,179.6662,81.0918,279.0256,-0.00042687,-7.07e-05,0.0,0 STARLINK-5449,1 54780U 22175Y   24124.58943989 -.00007070  00000-0 -42687-3 0  9995,2 54780  53.2147 179.6662 0001602  81.0918 279.0256 15.08811753 78219,6917.967,95.439,540.94,538.723,0.0
54780.0,STARLINK-5449,PAYLOAD,2024-05-03 20:30:20,15.08812182,0.0001737,53.2144,178.4775,80.7627,279.3561,-0.00035159,-5.875e-05,0.0,0 STARLINK-5449,1 54780U 22175Y   24124.85440358 -.00005875  00000-0 -35159-3 0  9994,2 54780  53.2144 178.4775 0001737  80.7627 279.3561 15.08812182 78253,6917.965,95.439,541.032,538.629,0.0
54780.0,STARLINK-5449,PAYLOAD,2024-05-04 12:24:13,15.08810066,0.0001329,53.2145,175.5035,72.5785,287.5352,0.00063178,9.773e-05,0.0,0 STARLINK-5449,1 54780U 22175Y   24125.51681764  .00009773  00000-0  63178-3 0  9997,2 54780  53.2145 175.5035 0001329  72.5785 287.5352 15.08810066 76191,6917.972,95.439,540.756,538.917,0.0
54780.0,STARLINK-5449,PAYLOAD,2024-05-04 18:45:45,15.08832075,0.0001215,53.214,174.3132,87.6403,272.4728,0.0012525,0.00019697,0.0,0 STARLINK-5449,1 54780U 22175Y   24125.78177751  .00019697  00000-0  12525-2 0  9997,2 54780  53.2140 174.3132 0001215  87.6403 272.4728 15.08832075 76238,6917.905,95.438,540.61,538.929,0.0
54780.0,STARLINK-5449,PAYLOAD,2024-05-05 13:50:22,15.08858347,0.0001321,53.2141,170.7453,74.4676,285.6461,0.00095312,0.00014921,0.0,0 STARLINK-5449,1 54780U 22175Y   24126.57665355  .00014921  00000-0  95312-3 0  9998,2 54780  53.2141 170.7453 0001321  74.4676 285.6461 15.08858347 78512,6917.824,95.436,540.603,538.775,0.0
54780.0,STARLINK-5449,PAYLOAD,2024-05-05 20:11:55,15.0886681,0.0001358,53.214,169.5561,73.5199,286.5942,0.00089211,0.00013949,0.0,0 STARLINK-5449,1 54780U 22175Y   24126.84160917  .00013949  00000-0  89211-3 0  9992,2 54780  53.2140 169.5561 0001358  73.5199 286.5942 15.08866810 76399,6917.798,95.436,540.603,538.724,0.0
54780.0,STARLINK-5449,PAYLOAD,2024-05-06 13:41:08,15.08883231,0.0001378,53.2139,166.2846,75.3557,284.7588,0.00089358,0.00013979,0.0,0 STARLINK-5449,1 54780U 22175Y   24127.57023310  .00013979  00000-0  89358-3 0  9993,2 54780  53.2139 166.2846 0001378  75.3557 284.7588 15.08883231 78661,6917.748,95.435,540.567,538.66,0.0
54780.0,STARLINK-5449,PAYLOAD,2024-05-06 20:02:40,15.08879341,0.0001486,53.2138,165.0957,66.9548,293.16,0.00054826,8.458e-05,0.0,0 STARLINK-5449,1 54780U 22175Y   24127.83518779  .00008458  00000-0  54826-3 0  9998,2 54780  53.2138 165.0957 0001486  66.9548 293.1600 15.08879341 76547,6917.76,95.435,540.653,538.597,0.0
54780.0,STARLINK-5449,PAYLOAD,2024-05-07 02:24:12,15.08868725,0.0001489,53.2138,163.9059,100.4965,259.6195,0.00024237,3.574e-05,0.0,0 STARLINK-5449,1 54780U 22175Y   24128.10014713  .00003574  00000-0  24237-3 0  9995,2 54780  53.2138 163.9059 0001489 100.4965 259.6195 15.08868725 76581,6917.793,95.436,540.688,538.628,0.0
54780.0,STARLINK-5449,PAYLOAD,2024-05-07 11:56:31,15.08846675,0.0001555,53.2141,162.1211,90.3462,269.7708,-0.00025558,-4.354e-05,0.0,0 STARLINK-5449,1 54780U 22175Y   24128.49758975 -.00004354  00000-0 -25558-3 0  9998,2 54780  53.2141 162.1211 0001555  90.3462 269.7708 15.08846675 76648,6917.86,95.437,540.801,538.649,0.0
54780.0,STARLINK-5449,PAYLOAD,2024-05-07 13:31:54,15.08854504,0.0001358,53.2141,161.8241,80.5996,279.515,5.732e-06,-1.97e-06,0.0,0 STARLINK-5449,1 54780U 22175Y   24128.56382934 -.00000197  00000-0  57320-5 0  9998,2 54780  53.2141 161.8241 0001358  80.5996 279.5150 15.08854504 78812,6917.836,95.437,540.64,538.762,0.0
